{
  "type": "FeatureCollection",
  "features": [
    {
      "type": "Feature",
      "properties": {
        "norad_id": 41599,
        "name": "CARTOSAT-2C",
        "group": "resource",
        "lat": -79.63113684556542,
        "lon": 101.68083293542853,
        "alt_km": 517.842530930915,
        "timestamp": "2025-12-24T16:52:41.157680+00:00",
        "meta_object_name": "CARTOSAT-2C",
        "meta_object_id": "2016-040A",
        "meta_epoch": "2025-12-24T07:45:26.144064",
        "meta_mean_motion": 15.1921719,
        "meta_eccentricity": 0.0010767,
        "meta_inclination": 97.4744,
        "meta_ra_of_asc_node": 55.4534,
        "meta_arg_of_pericenter": 26.5811,
        "meta_mean_anomaly": 333.5973,
        "meta_ephemeris_type": 0,
        "meta_classification_type": "U",
        "meta_norad_cat_id": 41599,
        "meta_element_set_no": 999,
        "meta_rev_at_epoch": 52716,
        "meta_bstar": 0.00025211401,
        "meta_mean_motion_dot": 5.248e-05,
        "meta_mean_motion_ddot": 0,
        "tle_line1": "1 41599U 16040A   25358.32321926  .00005248  00000+0  25211-3 0  9992",
        "tle_line2": "2 41599  97.4744  55.4534 0010767  26.5811 333.5973 15.19217190527165"
      },
      "geometry": {
        "type": "Point",
        "coordinates": [
          101.68083293542853,
          -79.63113684556542
        ]
      }
    },
    {
      "type": "Feature",
      "properties": {
        "norad_id": 41601,
        "name": "SKYSAT-C1",
        "group": "resource",
        "lat": -12.014588764669933,
        "lon": -146.45205496015487,
        "alt_km": 472.52701802329375,
        "timestamp": "2025-12-24T16:52:41.157691+00:00",
        "meta_object_name": "SKYSAT-C1",
        "meta_object_id": "2016-040C",
        "meta_epoch": "2025-12-24T00:22:30.388800",
        "meta_mean_motion": 15.32785523,
        "meta_eccentricity": 0.00010639,
        "meta_inclination": 96.9803,
        "meta_ra_of_asc_node": 34.3932,
        "meta_arg_of_pericenter": 330.1736,
        "meta_mean_anomaly": 29.9446,
        "meta_ephemeris_type": 0,
        "meta_classification_type": "U",
        "meta_norad_cat_id": 41601,
        "meta_element_set_no": 999,
        "meta_rev_at_epoch": 53100,
        "meta_bstar": 0.00029648076,
        "meta_mean_motion_dot": 9.317e-05,
        "meta_mean_motion_ddot": 0,
        "tle_line1": "1 41601U 16040C   25358.01562950  .00009317  00000+0  29648-3 0  9995",
        "tle_line2": "2 41601  96.9803  34.3932 0001063 330.1736  29.9446 15.32785523531000"
      },
      "geometry": {
        "type": "Point",
        "coordinates": [
          -146.45205496015487,
          -12.014588764669933
        ]
      }
    },
    {
      "type": "Feature",
      "properties": {
        "norad_id": 41603,
        "name": "LAPAN-A3",
        "group": "resource",
        "lat": -70.00804955461751,
        "lon": 15.988885480738903,
        "alt_km": 472.26867099393166,
        "timestamp": "2025-12-24T16:52:41.157702+00:00",
        "meta_object_name": "LAPAN-A3",
        "meta_object_id": "2016-040E",
        "meta_epoch": "2025-12-24T06:12:46.073376",
        "meta_mean_motion": 15.31643159,
        "meta_eccentricity": 0.00086956,
        "meta_inclination": 97.1432,
        "meta_ra_of_asc_node": 355.3962,
        "meta_arg_of_pericenter": 286.0828,
        "meta_mean_anomaly": 73.9457,
        "meta_ephemeris_type": 0,
        "meta_classification_type": "U",
        "meta_norad_cat_id": 41603,
        "meta_element_set_no": 999,
        "meta_rev_at_epoch": 52802,
        "meta_bstar": 0.00016048485,
        "meta_mean_motion_dot": 4.834e-05,
        "meta_mean_motion_ddot": 0,
        "tle_line1": "1 41603U 16040E   25358.25886659  .00004834  00000+0  16048-3 0  9997",
        "tle_line2": "2 41603  97.1432 355.3962 0008695 286.0828  73.9457 15.31643159528027"
      },
      "geometry": {
        "type": "Point",
        "coordinates": [
          15.988885480738903,
          -70.00804955461751
        ]
      }
    },
    {
      "type": "Feature",
      "properties": {
        "norad_id": 41604,
        "name": "BIROS",
        "group": "resource",
        "lat": -10.305121458028522,
        "lon": -150.63610181815162,
        "alt_km": 293.1441185467429,
        "timestamp": "2025-12-24T16:52:41.157712+00:00",
        "meta_object_name": "BIROS",
        "meta_object_id": "2016-040F",
        "meta_epoch": "2025-12-24T01:01:08.804064",
        "meta_mean_motion": 15.94180536,
        "meta_eccentricity": 0.00038271,
        "meta_inclination": 97.0659,
        "meta_ra_of_asc_node": 29.9644,
        "meta_arg_of_pericenter": 126.506,
        "meta_mean_anomaly": 233.6569,
        "meta_ephemeris_type": 0,
        "meta_classification_type": "U",
        "meta_norad_cat_id": 41604,
        "meta_element_set_no": 999,
        "meta_rev_at_epoch": 53052,
        "meta_bstar": 0.00058835139,
        "meta_mean_motion_dot": 0.00216442,
        "meta_mean_motion_ddot": 1.9807916e-05,
        "tle_line1": "1 41604U 16040F   25358.04246301  .00216442  19808-4  58835-3 0  9990",
        "tle_line2": "2 41604  97.0659  29.9644 0003827 126.5060 233.6569 15.94180536530528"
      },
      "geometry": {
        "type": "Point",
        "coordinates": [
          -150.63610181815162,
          -10.305121458028522
        ]
      }
    },
    {
      "type": "Feature",
      "properties": {
        "norad_id": 41727,
        "name": "GAOFEN-3",
        "group": "resource",
        "lat": -3.27090622737886,
        "lon": -176.37723963515344,
        "alt_km": 755.0634308005847,
        "timestamp": "2025-12-24T16:52:41.157723+00:00",
        "meta_object_name": "GAOFEN-3",
        "meta_object_id": "2016-049A",
        "meta_epoch": "2025-12-24T07:42:22.018752",
        "meta_mean_motion": 14.4221703,
        "meta_eccentricity": 0.0001138,
        "meta_inclination": 98.4033,
        "meta_ra_of_asc_node": 3.7305,
        "meta_arg_of_pericenter": 55.3835,
        "meta_mean_anomaly": 304.7462,
        "meta_ephemeris_type": 0,
        "meta_classification_type": "U",
        "meta_norad_cat_id": 41727,
        "meta_element_set_no": 999,
        "meta_rev_at_epoch": 49344,
        "meta_bstar": 0.00010534651,
        "meta_mean_motion_dot": 3.04e-06,
        "meta_mean_motion_ddot": 0,
        "tle_line1": "1 41727U 16049A   25358.32108818  .00000304  00000+0  10535-3 0  9998",
        "tle_line2": "2 41727  98.4033   3.7305 0001138  55.3835 304.7462 14.42217030493444"
      },
      "geometry": {
        "type": "Point",
        "coordinates": [
          -176.37723963515344,
          -3.27090622737886
        ]
      }
    },
    {
      "type": "Feature",
      "properties": {
        "norad_id": 41771,
        "name": "SKYSAT-C4",
        "group": "resource",
        "lat": -5.286540581049088,
        "lon": -157.3350757891489,
        "alt_km": 441.52079246428457,
        "timestamp": "2025-12-24T16:52:41.157733+00:00",
        "meta_object_name": "SKYSAT-C4",
        "meta_object_id": "2016-058B",
        "meta_epoch": "2025-12-24T00:30:33.239520",
        "meta_mean_motion": 15.42560985,
        "meta_eccentricity": 0.00024855,
        "meta_inclination": 96.9362,
        "meta_ra_of_asc_node": 22.6612,
        "meta_arg_of_pericenter": 124.561,
        "meta_mean_anomaly": 235.5873,
        "meta_ephemeris_type": 0,
        "meta_classification_type": "U",
        "meta_norad_cat_id": 41771,
        "meta_element_set_no": 999,
        "meta_rev_at_epoch": 51841,
        "meta_bstar": 0.00034910713,
        "meta_mean_motion_dot": 0.00015093,
        "meta_mean_motion_ddot": 0,
        "tle_line1": "1 41771U 16058B   25358.02121805  .00015093  00000+0  34911-3 0  9990",
        "tle_line2": "2 41771  96.9362  22.6612 0002485 124.5610 235.5873 15.42560985518411"
      },
      "geometry": {
        "type": "Point",
        "coordinates": [
          -157.3350757891489,
          -5.286540581049088
        ]
      }
    },
    {
      "type": "Feature",
      "properties": {
        "norad_id": 41772,
        "name": "SKYSAT-C5",
        "group": "resource",
        "lat": 76.47471610733729,
        "lon": -106.96462256463496,
        "alt_km": 458.2670498624566,
        "timestamp": "2025-12-24T16:52:41.157744+00:00",
        "meta_object_name": "SKYSAT-C5",
        "meta_object_id": "2016-058C",
        "meta_epoch": "2025-12-24T02:20:51.097632",
        "meta_mean_motion": 15.34073712,
        "meta_eccentricity": 0.00039198,
        "meta_inclination": 97.0739,
        "meta_ra_of_asc_node": 41.3742,
        "meta_arg_of_pericenter": 236.4499,
        "meta_mean_anomaly": 123.6371,
        "meta_ephemeris_type": 0,
        "meta_classification_type": "U",
        "meta_norad_cat_id": 41772,
        "meta_element_set_no": 999,
        "meta_rev_at_epoch": 51690,
        "meta_bstar": 0.00028857368,
        "meta_mean_motion_dot": 9.444e-05,
        "meta_mean_motion_ddot": 0,
        "tle_line1": "1 41772U 16058C   25358.09781363  .00009444  00000+0  28857-3 0  9994",
        "tle_line2": "2 41772  97.0739  41.3742 0003919 236.4499 123.6371 15.34073712516905"
      },
      "geometry": {
        "type": "Point",
        "coordinates": [
          -106.96462256463496,
          76.47471610733729
        ]
      }
    }
  ]
}